NORAD_CAT_ID,OBJECT_NAME,OBJECT_TYPE,EPOCH,MEAN_MOTION,ECCENTRICITY,INCLINATION,RA_OF_ASC_NODE,ARG_OF_PERICENTER,MEAN_ANOMALY,BSTAR,MEAN_MOTION_DOT,MEAN_MOTION_DDOT,TLE_LINE0,TLE_LINE1,TLE_LINE2,SEMIMAJOR_AXIS,PERIOD,APOGEE,PERIGEE,DECAYED
52882.0,STARLINK-4181,PAYLOAD,2023-04-07 06:03:54,15.0884277,0.0001157,53.2162,126.0303,93.8219,266.2905,0.00017911,2.564e-05,0.0,0 STARLINK-4181,1 52882U 22062BE  23097.25271157  .00002564  00000-0  17911-3 0  9997,2 52882  53.2162 126.0303 0001157  93.8219 266.2905 15.08842770 45413,6917.872,95.437,540.537,538.937,0.0
52882.0,STARLINK-4181,PAYLOAD,2023-04-07 10:50:03,15.08848069,0.0001123,53.2144,125.1379,85.1104,275.0017,0.00025704,3.806e-05,0.0,0 STARLINK-4181,1 52882U 22062BE  23097.45143041  .00003806  00000-0  25704-3 0  9998,2 52882  53.2144 125.1379 0001123  85.1104 275.0017 15.08848069 44953,6917.856,95.437,540.498,538.944,0.0
52882.0,STARLINK-4181,PAYLOAD,2023-04-08 09:05:27,15.08841472,0.0001218,53.2148,120.9749,82.6761,277.437,0.00011428,1.531e-05,0.0,0 STARLINK-4181,1 52882U 22062BE  23098.37879442  .00001531  00000-0  11428-3 0  9992,2 52882  53.2148 120.9749 0001218  82.6761 277.4370 15.08841472 45586,6917.876,95.437,540.583,538.898,0.0
52882.0,STARLINK-4181,PAYLOAD,2023-04-09 10:31:37,15.08847986,0.0001506,53.2169,116.2178,83.5485,276.5679,7.0962e-05,8.42e-06,0.0,0 STARLINK-4181,1 52882U 22062BE  23099.43863103  .00000842  00000-0  70962-4 0  9990,2 52882  53.2169 116.2178 0001506  83.5485 276.5679 15.08847986 45742,6917.856,95.437,540.763,538.679,0.0
52882.0,STARLINK-4181,PAYLOAD,2023-04-09 18:28:33,15.08833614,0.0001396,53.2161,114.7307,88.8098,271.3054,0.00020309,2.945e-05,0.0,0 STARLINK-4181,1 52882U 22062BE  23099.76983744  .00002945  00000-0  20309-3 0  9995,2 52882  53.2161 114.7307 0001396  88.8098 271.3054 15.08833614 45794,6917.9,95.438,540.731,538.799,0.0
52882.0,STARLINK-4181,PAYLOAD,2023-04-10 07:11:38,15.08840314,0.0001479,53.2164,112.3516,85.3048,274.8113,6.6245e-05,7.66e-06,0.0,0 STARLINK-4181,1 52882U 22062BE  23100.29975472  .00000766  00000-0  66245-4 0  9994,2 52882  53.2164 112.3516 0001479  85.3048 274.8113 15.08840314 45386,6917.879,95.438,540.768,538.721,0.0
52882.0,STARLINK-4181,PAYLOAD,2023-04-10 18:19:20,15.08840655,0.0001471,53.2163,110.2703,84.3663,275.7497,5.3677e-05,5.66e-06,0.0,0 STARLINK-4181,1 52882U 22062BE  23100.76343472  .00000566  00000-0  53677-4 0  9998,2 52882  53.2163 110.2703 0001471  84.3663 275.7497 15.08840655 45455,6917.878,95.438,540.761,538.726,0.0
52882.0,STARLINK-4181,PAYLOAD,2023-04-11 03:51:39,15.08841298,0.0001414,53.2156,108.4857,85.5746,274.5407,5.1927e-05,5.39e-06,0.0,0 STARLINK-4181,1 52882U 22062BE  23101.16087364  .00000539  00000-0  51927-4 0  9994,2 52882  53.2156 108.4857 0001414  85.5746 274.5407 15.08841298 46002,6917.876,95.437,540.72,538.763,0.0
52882.0,STARLINK-4181,PAYLOAD,2023-04-11 07:02:25,15.08841752,0.0001327,53.2155,107.8901,92.6901,267.4243,4.4254e-05,4.16e-06,0.0,0 STARLINK-4181,1 52882U 22062BE  23101.29335274  .00000416  00000-0  44254-4 0  9993,2 52882  53.2155 107.8901 0001327  92.6901 267.4243 15.08841752 45530,6917.875,95.437,540.658,538.822,0.0
52882.0,STARLINK-4181,PAYLOAD,2023-04-12 05:17:50,15.08832123,0.0001271,53.2156,103.7278,87.6809,272.4328,1.4927e-05,-5e-07,0.0,0 STARLINK-4181,1 52882U 22062BE  23102.22072171 -.00000050  00000-0  14927-4 0  9990,2 52882  53.2156 103.7278 0001271  87.6809 272.4328 15.08832123 46164,6917.904,95.438,540.649,538.89,0.0
52882.0,STARLINK-4181,PAYLOAD,2023-04-12 11:39:22,15.08835541,0.0001236,53.2157,102.538,88.0457,272.0677,2.7463e-05,1.49e-06,0.0,0 STARLINK-4181,1 52882U 22062BE  23102.48567978  .00000149  00000-0  27463-4 0  9999,2 52882  53.2157 102.5380 0001236  88.0457 272.0677 15.08835541 45711,6917.894,95.438,540.614,538.904,0.0
52882.0,STARLINK-4181,PAYLOAD,2023-04-13 09:54:46,15.08844212,0.00012,53.2158,98.3743,86.9381,273.1749,0.00010535,1.389e-05,0.0,0 STARLINK-4181,1 52882U 22062BE  23103.41303374  .00001389  00000-0  10535-3 0  9999,2 52882  53.2158  98.3743 0001200  86.9381 273.1749 15.08844212 45853,6917.868,95.437,540.563,538.902,0.0
52882.0,STARLINK-4181,PAYLOAD,2023-04-14 06:34:47,15.08837123,0.0001127,53.2158,94.509,97.1298,262.9822,7.7264e-05,9.42e-06,0.0,0 STARLINK-4181,1 52882U 22062BE  23104.27416174  .00000942  00000-0  77264-4 0  9994,2 52882  53.2158  94.5090 0001127  97.1298 262.9822 15.08837123 45980,6917.889,95.438,540.534,538.975,0.0
52882.0,STARLINK-4181,PAYLOAD,2023-04-15 06:25:34,15.08843784,0.000124,53.2171,90.0492,98.1972,261.9161,4.9829e-05,5.05e-06,0.0,0 STARLINK-4181,1 52882U 22062BE  23105.26776124  .00000505  00000-0  49829-4 0  9999,2 52882  53.2171  90.0492 0001240  98.1972 261.9161 15.08843784 46625,6917.869,95.437,540.592,538.876,0.0
52882.0,STARLINK-4181,PAYLOAD,2023-04-15 15:57:53,15.08840379,0.0001211,53.2167,88.264,87.4281,272.685,0.00014917,2.087e-05,0.0,0 STARLINK-4181,1 52882U 22062BE  23105.66520147  .00002087  00000-0  14917-3 0  9991,2 52882  53.2167  88.2640 0001211  87.4281 272.6850 15.08840379 46199,6917.879,95.438,540.582,538.906,0.0
52882.0,STARLINK-4181,PAYLOAD,2023-04-16 07:51:44,15.08844945,0.0001305,53.2174,85.2906,86.623,273.4912,9.2614e-05,1.187e-05,0.0,0 STARLINK-4181,1 52882U 22062BE  23106.32760049  .00001187  00000-0  92614-4 0  9993,2 52882  53.2174  85.2906 0001305  86.6230 273.4912 15.08844945 46290,6917.865,95.437,540.633,538.827,0.0
52882.0,STARLINK-4181,PAYLOAD,2023-04-16 15:48:40,15.08838961,0.0001287,53.2172,83.8032,82.3603,277.7535,4.1524e-05,3.73e-06,0.0,0 STARLINK-4181,1 52882U 22062BE  23106.65880507  .00000373  00000-0  41524-4 0  9991,2 52882  53.2172  83.8032 0001287  82.3603 277.7535 15.08838961 46343,6917.884,95.438,540.639,538.858,0.0
52882.0,STARLINK-4181,PAYLOAD,2023-04-17 07:42:31,15.08843457,0.0001256,53.2167,80.8277,84.7852,275.3284,5.5509e-05,5.96e-06,0.0,0 STARLINK-4181,1 52882U 22062BE  23107.32120276  .00000596  00000-0  55509-4 0  9991,2 52882  53.2167  80.8277 0001256  84.7852 275.3284 15.08843457 46939,6917.87,95.437,540.604,538.866,0.0
52882.0,STARLINK-4181,PAYLOAD,2023-04-17 15:39:27,15.0884498,0.0001297,53.2166,79.343,80.6925,279.4214,6.928e-05,8.15e-06,0.0,0 STARLINK-4181,1 52882U 22062BE  23107.65240137  .00000815  00000-0  69280-4 0  9991,2 52882  53.2166  79.3430 0001297  80.6925 279.4214 15.08844980 46494,6917.865,95.437,540.627,538.833,0.0
52882.0,STARLINK-4181,PAYLOAD,2023-04-18 10:44:04,15.08853517,0.0001267,53.2178,75.7756,101.498,258.6154,0.00014268,1.984e-05,0.0,0 STARLINK-4181,1 52882U 22062BE  23108.44727280  .00001984  00000-0  14268-3 0  9991,2 52882  53.2178  75.7756 0001267 101.4980 258.6154 15.08853517 46610,6917.839,95.437,540.581,538.828,0.0
52882.0,STARLINK-4181,PAYLOAD,2023-04-18 21:51:48,15.08827833,0.0001277,53.2167,73.6927,80.9116,279.2021,-1.1178e-05,-4.66e-06,0.0,0 STARLINK-4181,1 52882U 22062BE  23108.91097582 -.00000466  00000-0 -11178-4 0  9992,2 52882  53.2167  73.6927 0001277  80.9116 279.2021 15.08827833 47174,6917.918,95.438,540.666,538.899,0.0
52882.0,STARLINK-4181,PAYLOAD,2023-04-19 07:24:06,15.08840783,0.0001415,53.2161,71.9087,80.8332,279.282,6.5655e-05,7.57e-06,0.0,0 STARLINK-4181,1 52882U 22062BE  23109.30840855  .00000757  00000-0  65655-4 0  9995,2 52882  53.2161  71.9087 0001415  80.8332 279.2820 15.08840783 47232,6917.878,95.438,540.722,538.764,0.0
52882.0,STARLINK-4181,PAYLOAD,2023-04-20 07:14:52,15.08852648,0.0001313,53.2168,67.4473,86.7095,273.4047,0.00019487,2.816e-05,0.0,0 STARLINK-4181,1 52882U 22062BE  23110.30200099  .00002816  00000-0  19487-3 0  9996,2 52882  53.2168  67.4473 0001313  86.7095 273.4047 15.08852648 46897,6917.842,95.437,540.615,538.798,0.0
52882.0,STARLINK-4181,PAYLOAD,2023-04-21 07:05:40,15.08836239,0.0001326,53.2171,62.9858,97.626,262.4882,5.093e-05,5.23e-06,0.0,0 STARLINK-4181,1 52882U 22062BE  23111.29561301  .00000523  00000-0  50930-4 0  9993,2 52882  53.2171  62.9858 0001326  97.6260 262.4882 15.08836239 47532,6917.892,95.438,540.674,538.84,0.0
52882.0,STARLINK-4181,PAYLOAD,2023-04-22 06:56:38,15.08636984,6.36e-05,53.2167,58.5287,293.0493,67.0432,-0.0027063,-0.00042863,0.0,0 STARLINK-4181,1 52882U 22062BE  23112.28933631 -.00042863  00000-0 -27063-2 0  9996,2 52882  53.2167  58.5287 0000636 293.0493  67.0432 15.08636984 47688,6918.501,95.45,540.806,539.926,0.0
52882.0,STARLINK-4181,PAYLOAD,2023-04-22 21:15:39,15.08187229,0.0001543,53.2162,55.8516,91.7126,268.4043,-0.0076143,-0.00117389,0.0,0 STARLINK-4181,1 52882U 22062BE  23112.88586964 -.00117389  00000-0 -76143-2 0  9994,2 52882  53.2162  55.8516 0001543  91.7126 268.4043 15.08187229 47770,6919.876,95.479,542.809,540.674,0.0
52882.0,STARLINK-4181,PAYLOAD,2023-04-23 05:13:12,15.08040429,0.0001142,53.2174,54.3707,100.4128,259.6992,-0.0058731,-0.00090585,0.0,0 STARLINK-4181,1 52882U 22062BE  23113.21750691 -.00090585  00000-0 -58731-2 0  9993,2 52882  53.2174  54.3707 0001142 100.4128 259.6992 15.08040429 47825,6920.325,95.488,542.981,541.4,0.0
52882.0,STARLINK-4181,PAYLOAD,2023-04-23 08:24:10,15.07951832,0.0001729,53.2173,53.7728,140.5744,219.5373,-0.0063533,-0.00097639,0.0,0 STARLINK-4181,1 52882U 22062BE  23113.35011881 -.00097639  00000-0 -63533-2 0  9992,2 52882  53.2173  53.7728 0001729 140.5744 219.5373 15.07951832 47848,6920.596,95.494,543.658,541.265,0.0
52882.0,STARLINK-4181,PAYLOAD,2023-04-23 22:00:00,15.07212861,0.0001549,53.2169,51.237,91.0064,106.4356,-0.0011898,-0.00018352,0.0,0 STARLINK-4181,1 52882U 22062BE  23113.91667824 -.00018352  00000-0 -11898-2 0  9990,2 52882  53.2169  51.2370 0001549  91.0064 106.4356 15.07212861 47931,6922.858,95.541,545.796,543.651,0.0
52882.0,STARLINK-4181,PAYLOAD,2023-04-24 14:00:01,15.07198583,0.0001494,53.2169,48.2516,88.2039,128.4995,0.0003378,4.861e-05,0.0,0 STARLINK-4181,1 52882U 22062BE  23114.58334491  .00004861  00000-0  33780-3 0  9998,2 52882  53.2169  48.2516 0001494  88.2039 128.4995 15.07198583 48037,6922.902,95.541,545.801,543.733,0.0
